{"type": "FeatureCollection", "features": [ {"type": "Feature", "properties": {"norad_id": 33841, "name": "COSMOS 2251 DEB", "group": "cosmos-2251-debris", "lat": 62.20566272880991, "lon": 65.39249069028556, "alt_km": 765.181924176979, "timestamp": "2025-12-12T14:39:18.325600+00:00", "meta": {"OBJECT_NAME": "COSMOS 2251 DEB", "OBJECT_ID": "1993-036CJ", "EPOCH": "2025-12-12T06:32:00.400704", "MEAN_MOTION": 14.37859782, "ECCENTRICITY": 0.00205143, "INCLINATION": 74.0378, "RA_OF_ASC_NODE": 278.9026, "ARG_OF_PERICENTER": 359.3641, "MEAN_ANOMALY": 162.4699, "EPHEMERIS_TYPE": 0, "CLASSIFICATION_TYPE": "U", "NORAD_CAT_ID": 33841, "ELEMENT_SET_NO": 999, "REV_AT_EPOCH": 88107, "BSTAR": 0.00038547787, "MEAN_MOTION_DOT": 1.139e-05, "MEAN_MOTION_DDOT": 0}, "tle": {"line1": "1 33841U 93036CJ  25346.27222686  .00001139  00000+0  38548-3 0  9999", "line2": "2 33841  74.0378 278.9026 0020514 359.3641 162.4699 14.37859782881072"}}, "geometry": {"type": "Point", "coordinates": [65.39249069028556, 62.20566272880991]}}, {"type": "Feature", "properties": {"norad_id": 33842, "name": "COSMOS 2251 DEB", "group": "cosmos-2251-debris", "lat": 5.284660648770805, "lon": -138.59062389417562, "alt_km": 725.0274829944765, "timestamp": "2025-12-12T14:39:18.325609+00:00", "meta": {"OBJECT_NAME": "COSMOS 2251 DEB", "OBJECT_ID": "1993-036CK", "EPOCH": "2025-12-12T01:18:58.033440", "MEAN_MOTION": 14.42695495, "ECCENTRICITY": 0.00472729, "INCLINATION": 74.0328, "RA_OF_ASC_NODE": 220.9231, "ARG_OF_PERICENTER": 328.3961, "MEAN_ANOMALY": 31.4357, "EPHEMERIS_TYPE": 0, "CLASSIFICATION_TYPE": "U", "NORAD_CAT_ID": 33842, "ELEMENT_SET_NO": 999, "REV_AT_EPOCH": 88327, "BSTAR": 0.00044228733, "MEAN_MOTION_DOT": 1.465e-05, "MEAN_MOTION_DDOT": 0}, "tle": {"line1": "1 33842U 93036CK  25346.05483835  .00001465  00000+0  44229-3 0  9996", "line2": "2 33842  74.0328 220.9231 0047272 328.3961  31.4357 14.42695495883279"}}, "geometry": {"type": "Point", "coordinates": [-138.59062389417562, 5.284660648770805]}}, {"type": "Feature", "properties": {"norad_id": 33844, "name": "COSMOS 2251 DEB", "group": "cosmos-2251-debris", "lat": -56.749002434382824, "lon": 27.185816616508664, "alt_km": 809.9666544815545, "timestamp": "2025-12-12T14:39:18.325619+00:00", "meta": {"OBJECT_NAME": "COSMOS 2251 DEB", "OBJECT_ID": "1993-036CM", "EPOCH": "2025-12-12T06:51:46.626048", "MEAN_MOTION": 14.33714977, "ECCENTRICITY": 0.00470667, "INCLINATION": 74.0672, "RA_OF_ASC_NODE": 53.6074, "ARG_OF_PERICENTER": 75.7032, "MEAN_ANOMALY": 349.2286, "EPHEMERIS_TYPE": 0, "CLASSIFICATION_TYPE": "U", "NORAD_CAT_ID": 33844, "ELEMENT_SET_NO": 999, "REV_AT_EPOCH": 87719, "BSTAR": 0.00056591394, "MEAN_MOTION_DOT": 1.565e-05, "MEAN_MOTION_DDOT": 0}, "tle": {"line1": "1 33844U 93036CM  25346.28595632  .00001565  00000+0  56591-3 0  9998", "line2": "2 33844  74.0672  53.6074 0047066  75.7032 349.2286 14.33714977877194"}}, "geometry": {"type": "Point", "coordinates": [27.185816616508664, -56.749002434382824]}}, {"type": "Feature", "properties": {"norad_id": 33848, "name": "COSMOS 2251 DEB", "group": "cosmos-2251-debris", "lat": 60.68201368367932, "lon": 147.23057375339917, "alt_km": 724.5987855787935, "timestamp": "2025-12-12T14:39:18.325628+00:00", "meta": {"OBJECT_NAME": "COSMOS 2251 DEB", "OBJECT_ID": "1993-036CR", "EPOCH": "2025-12-12T00:58:09.715008", "MEAN_MOTION": 14.44053563, "ECCENTRICITY": 0.0041071, "INCLINATION": 74.0325, "RA_OF_ASC_NODE": 358.944, "ARG_OF_PERICENTER": 55.0525, "MEAN_ANOMALY": 336.1612, "EPHEMERIS_TYPE": 0, "CLASSIFICATION_TYPE": "U", "NORAD_CAT_ID": 33848, "ELEMENT_SET_NO": 999, "REV_AT_EPOCH": 87821, "BSTAR": 0.0015645, "MEAN_MOTION_DOT": 5.386e-05, "MEAN_MOTION_DDOT": 0}, "tle": {"line1": "1 33848U 93036CR  25346.04039022  .00005386  00000+0  15645-2 0  9991", "line2": "2 33848  74.0325 358.9440 0041071  55.0525 336.1612 14.44053563878210"}}, "geometry": {"type": "Point", "coordinates": [147.23057375339917, 60.68201368367932]}}, {"type": "Feature", "properties": {"norad_id": 33892, "name": "COSMOS 2251 DEB", "group": "cosmos-2251-debris", "lat": 44.63721930843447, "lon": 118.97234068617807, "alt_km": 803.9893763283799, "timestamp": "2025-12-12T14:39:18.325637+00:00", "meta": {"OBJECT_NAME": "COSMOS 2251 DEB", "OBJECT_ID": "1993-036CV", "EPOCH": "2025-12-11T18:53:42.205920", "MEAN_MOTION": 14.2333295, "ECCENTRICITY": 0.01128939, "INCLINATION": 73.8027, "RA_OF_ASC_NODE": 103.7951, "ARG_OF_PERICENTER": 135.2175, "MEAN_ANOMALY": 16.048, "EPHEMERIS_TYPE": 0, "CLASSIFICATION_TYPE": "U", "NORAD_CAT_ID": 33892, "ELEMENT_SET_NO": 999, "REV_AT_EPOCH": 86941, "BSTAR": 0.0013560055, "MEAN_MOTION_DOT": 3.257e-05, "MEAN_MOTION_DDOT": 0}, "tle": {"line1": "1 33892U 93036CV  25345.78729405  .00003257  00000+0  13560-2 0  9990", "line2": "2 33892  73.8027 103.7951 0112893 135.2175  16.0480 14.23332950869417"}}, "geometry": {"type": "Point", "coordinates": [118.97234068617807, 44.63721930843447]}}, {"type": "Feature", "properties": {"norad_id": 33894, "name": "COSMOS 2251 DEB", "group": "cosmos-2251-debris", "lat": 12.806895063532211, "lon": -6.92271177754789, "alt_km": 1267.845772044201, "timestamp": "2025-12-12T14:39:18.325646+00:00", "meta": {"OBJECT_NAME": "COSMOS 2251 DEB", "OBJECT_ID": "1993-036CX", "EPOCH": "2025-12-12T00:03:02.543328", "MEAN_MOTION": 13.21299903, "ECCENTRICITY": 0.0579541, "INCLINATION": 73.7679, "RA_OF_ASC_NODE": 350.2214, "ARG_OF_PERICENTER": 269.7288, "MEAN_ANOMALY": 83.7417, "EPHEMERIS_TYPE": 0, "CLASSIFICATION_TYPE": "U", "NORAD_CAT_ID": 33894, "ELEMENT_SET_NO": 999, "REV_AT_EPOCH": 80698, "BSTAR": 0.002681, "MEAN_MOTION_DOT": 2.649e-05, "MEAN_MOTION_DDOT": 0}, "tle": {"line1": "1 33894U 93036CX  25346.00211277  .00002649  00000+0  26810-2 0  9997", "line2": "2 33894  73.7679 350.2214 0579541 269.7288  83.7417 13.21299903806988"}}, "geometry": {"type": "Point", "coordinates": [-6.92271177754789, 12.806895063532211]}}, {"type": "Feature", "properties": {"norad_id": 33896, "name": "COSMOS 2251 DEB", "group": "cosmos-2251-debris", "lat": 55.97272206713877, "lon": -48.646393363276395, "alt_km": 899.5225375253822, "timestamp": "2025-12-12T14:39:18.325656+00:00", "meta": {"OBJECT_NAME": "COSMOS 2251 DEB", "OBJECT_ID": "1993-036CZ", "EPOCH": "2025-12-12T04:29:11.254848", "MEAN_MOTION": 14.19036377, "ECCENTRICITY": 0.01264282, "INCLINATION": 73.7657, "RA_OF_ASC_NODE": 157.6865, "ARG_OF_PERICENTER": 333.4727, "MEAN_ANOMALY": 142.4013, "EPHEMERIS_TYPE": 0, "CLASSIFICATION_TYPE": "U", "NORAD_CAT_ID": 33896, "ELEMENT_SET_NO": 999, "REV_AT_EPOCH": 86732, "BSTAR": 0.00089423071, "MEAN_MOTION_DOT": 1.995e-05, "MEAN_MOTION_DDOT": 0}, "tle": {"line1": "1 33896U 93036CZ  25346.18693582  .00001995  00000+0  89423-3 0  9994", "line2": "2 33896  73.7657 157.6865 0126428 333.4727 142.4013 14.19036377867328"}}, "geometry": {"type": "Point", "coordinates": [-48.646393363276395, 55.97272206713877]}}, {"type": "Feature", "properties": {"norad_id": 33899, "name": "COSMOS 2251 DEB", "group": "cosmos-2251-debris", "lat": 57.00325048584799, "lon": -120.15289130151065, "alt_km": 648.553332391296, "timestamp": "2025-12-12T14:39:18.325665+00:00", "meta": {"OBJECT_NAME": "COSMOS 2251 DEB", "OBJECT_ID": "1993-036DC", "EPOCH": "2025-12-12T07:47:39.454080", "MEAN_MOTION": 14.61185348, "ECCENTRICITY": 0.00567743, "INCLINATION": 74.0537, "RA_OF_ASC_NODE": 86.518, "ARG_OF_PERICENTER": 149.3996, "MEAN_ANOMALY": 267.0227, "EPHEMERIS_TYPE": 0, "CLASSIFICATION_TYPE": "U", "NORAD_CAT_ID": 33899, "ELEMENT_SET_NO": 999, "REV_AT_EPOCH": 88833, "BSTAR": 0.001606091, "MEAN_MOTION_DOT": 8.072e-05, "MEAN_MOTION_DDOT": 0}, "tle": {"line1": "1 33899U 93036DC  25346.32476220  .00008072  00000+0  16061-2 0  9991", "line2": "2 33899  74.0537  86.5180 0056774 149.3996 267.0227 14.61185348888335"}}, "geometry": {"type": "Point", "coordinates": [-120.15289130151065, 57.00325048584799]}}, {"type": "Feature", "properties": {"norad_id": 33900, "name": "COSMOS 2251 DEB", "group": "cosmos-2251-debris", "lat": 22.62860981860491, "lon": 173.2487436467277, "alt_km": 664.7301474418355, "timestamp": "2025-12-12T14:39:18.325674+00:00", "meta": {"OBJECT_NAME": "COSMOS 2251 DEB", "OBJECT_ID": "1993-036DD", "EPOCH": "2025-12-12T07:25:34.965408", "MEAN_MOTION": 14.58344978, "ECCENTRICITY": 0.00468619, "INCLINATION": 74.0195, "RA_OF_ASC_NODE": 0.6829, "ARG_OF_PERICENTER": 152.9352, "MEAN_ANOMALY": 222.6856, "EPHEMERIS_TYPE": 0, "CLASSIFICATION_TYPE": "U", "NORAD_CAT_ID": 33900, "ELEMENT_SET_NO": 999, "REV_AT_EPOCH": 89030, "BSTAR": 0.00061893721, "MEAN_MOTION_DOT": 2.88e-05, "MEAN_MOTION_DDOT": 0}, "tle": {"line1": "1 33900U 93036DD  25346.30943247  .00002880  00000+0  61894-3 0  9996", "line2": "2 33900  74.0195   0.6829 0046861 152.9352 222.6856 14.58344978890304"}}, "geometry": {"type": "Point", "coordinates": [173.2487436467277, 22.62860981860491]}}, {"type": "Feature", "properties": {"norad_id": 33901, "name": "COSMOS 2251 DEB", "group": "cosmos-2251-debris", "lat": 64.76043055357849, "lon": -168.5840663498285, "alt_km": 504.61498669441517, "timestamp": "2025-12-12T14:39:18.325683+00:00", "meta": {"OBJECT_NAME": "COSMOS 2251 DEB", "OBJECT_ID": "1993-036DE", "EPOCH": "2025-12-12T06:15:09.233856", "MEAN_MOTION": 15.15867601, "ECCENTRICITY": 0.00318419, "INCLINATION": 73.7739, "RA_OF_ASC_NODE": 50.3102, "ARG_OF_PERICENTER": 182.2934, "MEAN_ANOMALY": 177.812, "EPHEMERIS_TYPE": 0, "CLASSIFICATION_TYPE": "U", "NORAD_CAT_ID": 33901, "ELEMENT_SET_NO": 999, "REV_AT_EPOCH": 89506, "BSTAR": 0.0044965999, "MEAN_MOTION_DOT": 0.00088185, "MEAN_MOTION_DDOT": 0}, "tle": {"line1": "1 33901U 93036DE  25346.26052354  .00088185  00000+0  44966-2 0  9994", "line2": "2 33901  73.7739  50.3102 0031841 182.2934 177.8120 15.15867601895065"}}, "geometry": {"type": "Point", "coordinates": [-168.5840663498285, 64.76043055357849]}}]}